STARLINK-2370           
1 47910U 21021BC  26068.86242399 -.00003124  00000+0 -93435-4 0  9991
2 47910  53.1609 267.3167 0001567  64.3232 295.7930 15.30180990276284
TIANMU-1 07             
1 57399U 23101A   26065.57454230  .00008352  00000+0  29795-3 0  9991
2 57399  97.2728 118.5929 0004609 142.4105 217.7458 15.29118809145964
